TEVEL2-6                
1 63215U 25052F   26065.25020065  .00022223  00000+0  75251-3 0  9993
2 63215  97.4024 321.6479 0004705 103.4581 256.7185 15.30586491 54347
TEVEL2-1                
1 63217U 25052H   26065.24750817  .00021481  00000+0  73692-3 0  9991
2 63217  97.3999 321.3811 0004627 112.4118 247.7613 15.30171419 54330
TEVEL2-3                
1 63218U 25052J   26065.24516551  .00021441  00000+0  73478-3 0  9995
2 63218  97.4004 321.3898 0004582 112.8346 247.3379 15.30206494 54338
TEVEL2-2                
1 63219U 25052K   26065.24817260  .00021749  00000+0  74599-3 0  9993
2 63219  97.4000 321.3822 0004548 112.7454 247.4267 15.30174270 54336
TEVEL2-9                
1 63237U 25052AD  26065.23272910  .00019380  00000+0  70037-3 0  9990
2 63237  97.4062 320.9430 0007886 134.9619 225.2261 15.28472470 54283
TEVEL2-7                
1 63238U 25052AE  26065.25654977  .00019573  00000+0  71193-3 0  9998
2 63238  97.4060 320.9202 0007820 133.7958 226.3929 15.28258296 54281
TEVEL2-8                
1 63239U 25052AF  26065.26352179  .00019944  00000+0  72584-3 0  9996
2 63239  97.4060 320.9075 0007744 135.4315 224.7548 15.28236257 54283
HADES-ICM               
1 63492U 25052BN  26065.16133539  .00133888  00000+0  19161-2 0  9998
2 63492  97.3953 325.4839 0008718 117.9382 242.2756 15.55698664 54597
INNOSAT 16 (RS92S7)     
1 64878U 25155C   26065.23704187  .00008787  00000+0  36387-3 0  9991
2 64878  97.4464  32.8585 0010580 177.1492 182.9807 15.24113340 64981
GEOSCAN 6 (RS92S6)      
1 64879U 25155D   26065.24410503  .00014817  00000+0  54636-3 0  9997
2 64879  97.4464  33.6294 0008250 165.5146 194.6331 15.27865383 65039
GEOSCAN 1 (RS92S1)      
1 64880U 25155E   26065.28084088  .00015432  00000+0  56176-3 0  9993
2 64880  97.4461  33.7379 0008165 165.2890 194.8589 15.28281219 65040
239ALFEROV (RS61S)      
1 64881U 25155F   26065.24448401  .00018675  00000+0  64888-3 0  9994
2 64881  97.4467  33.9670 0007885 163.0847 197.0657 15.29767108 65058
GEOSCAN 2 (RS92S2)      
1 64890U 25155Q   26065.22840212  .00014923  00000+0  53845-3 0  9991
2 64890  97.4460  33.7946 0008075 152.0209 208.1467 15.28580215 65040
GEOSCAN 5 (RS92S5)      
1 64891U 25155R   26065.25539338  .00019486  00000+0  67018-3 0  9995
2 64891  97.4459  34.0748 0006513 165.7073 194.4353 15.30100633 65066
GEOSCAN 4 (RS92S4)      
1 64892U 25155S   26065.24800815  .00020104  00000+0  68911-3 0  9998
2 64892  97.4463  34.0911 0006493 166.0755 194.0665 15.30204157 65060
GEOSCAN 3 (RS92S3)      
1 64893U 25155T   26065.22889291  .00022932  00000+0  75468-3 0  9998
2 64893  97.4455  34.2562 0006219 165.4980 194.6441 15.31496417 65077
