[{"OBJECT_NAME":"TEVEL2-6","OBJECT_ID":"2025-052F","EPOCH":"2026-03-06T06:00:17.336160","MEAN_MOTION":15.30586491,"ECCENTRICITY":0.00047056,"INCLINATION":97.4024,"RA_OF_ASC_NODE":321.6479,"ARG_OF_PERICENTER":103.4581,"MEAN_ANOMALY":256.7185,"EPHEMERIS_TYPE":0,"CLASSIFICATION_TYPE":"U","NORAD_CAT_ID":63215,"ELEMENT_SET_NO":999,"REV_AT_EPOCH":5434,"BSTAR":0.00075251319,"MEAN_MOTION_DOT":0.00022223,"MEAN_MOTION_DDOT":0},{"OBJECT_NAME":"TEVEL2-1","OBJECT_ID":"2025-052H","EPOCH":"2026-03-06T05:56:24.705888","MEAN_MOTION":15.30171419,"ECCENTRICITY":0.00046277,"INCLINATION":97.3999,"RA_OF_ASC_NODE":321.3811,"ARG_OF_PERICENTER":112.4118,"MEAN_ANOMALY":247.7613,"EPHEMERIS_TYPE":0,"CLASSIFICATION_TYPE":"U","NORAD_CAT_ID":63217,"ELEMENT_SET_NO":999,"REV_AT_EPOCH":5433,"BSTAR":0.00073691536,"MEAN_MOTION_DOT":0.00021481,"MEAN_MOTION_DDOT":0},{"OBJECT_NAME":"TEVEL2-3","OBJECT_ID":"2025-052J","EPOCH":"2026-03-06T05:53:02.300064","MEAN_MOTION":15.30206494,"ECCENTRICITY":0.00045821,"INCLINATION":97.4004,"RA_OF_ASC_NODE":321.3898,"ARG_OF_PERICENTER":112.8346,"MEAN_ANOMALY":247.3379,"EPHEMERIS_TYPE":0,"CLASSIFICATION_TYPE":"U","NORAD_CAT_ID":63218,"ELEMENT_SET_NO":999,"REV_AT_EPOCH":5433,"BSTAR":0.0007347758,"MEAN_MOTION_DOT":0.00021441,"MEAN_MOTION_DDOT":0},{"OBJECT_NAME":"TEVEL2-2","OBJECT_ID":"2025-052K","EPOCH":"2026-03-06T05:57:22.112640","MEAN_MOTION":15.3017427,"ECCENTRICITY":0.00045485,"INCLINATION":97.4,"RA_OF_ASC_NODE":321.3822,"ARG_OF_PERICENTER":112.7454,"MEAN_ANOMALY":247.4267,"EPHEMERIS_TYPE":0,"CLASSIFICATION_TYPE":"U","NORAD_CAT_ID":63219,"ELEMENT_SET_NO":999,"REV_AT_EPOCH":5433,"BSTAR":0.0007459905,"MEAN_MOTION_DOT":0.00021749,"MEAN_MOTION_DDOT":0},{"OBJECT_NAME":"TEVEL2-9","OBJECT_ID":"2025-052AD","EPOCH":"2026-03-06T05:35:07.794240","MEAN_MOTION":15.2847247,"ECCENTRICITY":0.00078868,"INCLINATION":97.4062,"RA_OF_ASC_NODE":320.943,"ARG_OF_PERICENTER":134.9619,"MEAN_ANOMALY":225.2261,"EPHEMERIS_TYPE":0,"CLASSIFICATION_TYPE":"U","NORAD_CAT_ID":63237,"ELEMENT_SET_NO":999,"REV_AT_EPOCH":5428,"BSTAR":0.00070036717,"MEAN_MOTION_DOT":0.0001938,"MEAN_MOTION_DDOT":0},{"OBJECT_NAME":"TEVEL2-7","OBJECT_ID":"2025-052AE","EPOCH":"2026-03-06T06:09:25.900128","MEAN_MOTION":15.28258296,"ECCENTRICITY":0.00078201,"INCLINATION":97.406,"RA_OF_ASC_NODE":320.9202,"ARG_OF_PERICENTER":133.7958,"MEAN_ANOMALY":226.3929,"EPHEMERIS_TYPE":0,"CLASSIFICATION_TYPE":"U","NORAD_CAT_ID":63238,"ELEMENT_SET_NO":999,"REV_AT_EPOCH":5428,"BSTAR":0.00071192546,"MEAN_MOTION_DOT":0.00019573,"MEAN_MOTION_DDOT":0},{"OBJECT_NAME":"TEVEL2-8","OBJECT_ID":"2025-052AF","EPOCH":"2026-03-06T06:19:28.282656","MEAN_MOTION":15.28236257,"ECCENTRICITY":0.00077443,"INCLINATION":97.406,"RA_OF_ASC_NODE":320.9075,"ARG_OF_PERICENTER":135.4315,"MEAN_ANOMALY":224.7548,"EPHEMERIS_TYPE":0,"CLASSIFICATION_TYPE":"U","NORAD_CAT_ID":63239,"ELEMENT_SET_NO":999,"REV_AT_EPOCH":5428,"BSTAR":0.0007258359,"MEAN_MOTION_DOT":0.00019944,"MEAN_MOTION_DDOT":0},{"OBJECT_NAME":"HADES-ICM","OBJECT_ID":"2025-052BN","EPOCH":"2026-03-06T03:52:19.377696","MEAN_MOTION":15.55698664,"ECCENTRICITY":0.00087189,"INCLINATION":97.3953,"RA_OF_ASC_NODE":325.4839,"ARG_OF_PERICENTER":117.9382,"MEAN_ANOMALY":242.2756,"EPHEMERIS_TYPE":0,"CLASSIFICATION_TYPE":"U","NORAD_CAT_ID":63492,"ELEMENT_SET_NO":999,"REV_AT_EPOCH":5459,"BSTAR":0.0019161313,"MEAN_MOTION_DOT":0.00133888,"MEAN_MOTION_DDOT":0},{"OBJECT_NAME":"INNOSAT 16 (RS92S7)","OBJECT_ID":"2025-155C","EPOCH":"2026-03-06T05:41:20.417568","MEAN_MOTION":15.2411334,"ECCENTRICITY":0.00105805,"INCLINATION":97.4464,"RA_OF_ASC_NODE":32.8585,"ARG_OF_PERICENTER":177.1492,"MEAN_ANOMALY":182.9807,"EPHEMERIS_TYPE":0,"CLASSIFICATION_TYPE":"U","NORAD_CAT_ID":64878,"ELEMENT_SET_NO":999,"REV_AT_EPOCH":6498,"BSTAR":0.00036387113,"MEAN_MOTION_DOT":8.787e-5,"MEAN_MOTION_DDOT":0},{"OBJECT_NAME":"GEOSCAN 6 (RS92S6)","OBJECT_ID":"2025-155D","EPOCH":"2026-03-06T05:51:30.674592","MEAN_MOTION":15.27865383,"ECCENTRICITY":0.00082508,"INCLINATION":97.4464,"RA_OF_ASC_NODE":33.6294,"ARG_OF_PERICENTER":165.5146,"MEAN_ANOMALY":194.6331,"EPHEMERIS_TYPE":0,"CLASSIFICATION_TYPE":"U","NORAD_CAT_ID":64879,"ELEMENT_SET_NO":999,"REV_AT_EPOCH":6503,"BSTAR":0.00054636198,"MEAN_MOTION_DOT":0.00014817,"MEAN_MOTION_DDOT":0},{"OBJECT_NAME":"GEOSCAN 1 (RS92S1)","OBJECT_ID":"2025-155E","EPOCH":"2026-03-06T06:44:24.652032","MEAN_MOTION":15.28281219,"ECCENTRICITY":0.00081653,"INCLINATION":97.4461,"RA_OF_ASC_NODE":33.7379,"ARG_OF_PERICENTER":165.289,"MEAN_ANOMALY":194.8589,"EPHEMERIS_TYPE":0,"CLASSIFICATION_TYPE":"U","NORAD_CAT_ID":64880,"ELEMENT_SET_NO":999,"REV_AT_EPOCH":6504,"BSTAR":0.00056175989,"MEAN_MOTION_DOT":0.00015432,"MEAN_MOTION_DDOT":0},{"OBJECT_NAME":"239ALFEROV (RS61S)","OBJECT_ID":"2025-155F","EPOCH":"2026-03-06T05:52:03.418464","MEAN_MOTION":15.29767108,"ECCENTRICITY":0.00078851,"INCLINATION":97.4467,"RA_OF_ASC_NODE":33.967,"ARG_OF_PERICENTER":163.0847,"MEAN_ANOMALY":197.0657,"EPHEMERIS_TYPE":0,"CLASSIFICATION_TYPE":"U","NORAD_CAT_ID":64881,"ELEMENT_SET_NO":999,"REV_AT_EPOCH":6505,"BSTAR":0.00064887725,"MEAN_MOTION_DOT":0.00018675,"MEAN_MOTION_DDOT":0},{"OBJECT_NAME":"GEOSCAN 2 (RS92S2)","OBJECT_ID":"2025-155Q","EPOCH":"2026-03-06T05:28:53.943168","MEAN_MOTION":15.28580215,"ECCENTRICITY":0.00080757,"INCLINATION":97.446,"RA_OF_ASC_NODE":33.7946,"ARG_OF_PERICENTER":152.0209,"MEAN_ANOMALY":208.1467,"EPHEMERIS_TYPE":0,"CLASSIFICATION_TYPE":"U","NORAD_CAT_ID":64890,"ELEMENT_SET_NO":999,"REV_AT_EPOCH":6504,"BSTAR":0.00053845286,"MEAN_MOTION_DOT":0.00014923,"MEAN_MOTION_DDOT":0},{"OBJECT_NAME":"GEOSCAN 5 (RS92S5)","OBJECT_ID":"2025-155R","EPOCH":"2026-03-06T06:07:45.988032","MEAN_MOTION":15.30100633,"ECCENTRICITY":0.00065137,"INCLINATION":97.4459,"RA_OF_ASC_NODE":34.0748,"ARG_OF_PERICENTER":165.7073,"MEAN_ANOMALY":194.4353,"EPHEMERIS_TYPE":0,"CLASSIFICATION_TYPE":"U","NORAD_CAT_ID":64891,"ELEMENT_SET_NO":999,"REV_AT_EPOCH":6506,"BSTAR":0.00067018222,"MEAN_MOTION_DOT":0.00019486,"MEAN_MOTION_DDOT":0},{"OBJECT_NAME":"GEOSCAN 4 (RS92S4)","OBJECT_ID":"2025-155S","EPOCH":"2026-03-06T05:57:07.904160","MEAN_MOTION":15.30204157,"ECCENTRICITY":0.00064937,"INCLINATION":97.4463,"RA_OF_ASC_NODE":34.0911,"ARG_OF_PERICENTER":166.0755,"MEAN_ANOMALY":194.0665,"EPHEMERIS_TYPE":0,"CLASSIFICATION_TYPE":"U","NORAD_CAT_ID":64892,"ELEMENT_SET_NO":999,"REV_AT_EPOCH":6506,"BSTAR":0.00068910875,"MEAN_MOTION_DOT":0.00020104,"MEAN_MOTION_DDOT":0},{"OBJECT_NAME":"GEOSCAN 3 (RS92S3)","OBJECT_ID":"2025-155T","EPOCH":"2026-03-06T05:29:36.347424","MEAN_MOTION":15.31496417,"ECCENTRICITY":0.00062198,"INCLINATION":97.4455,"RA_OF_ASC_NODE":34.2562,"ARG_OF_PERICENTER":165.498,"MEAN_ANOMALY":194.6441,"EPHEMERIS_TYPE":0,"CLASSIFICATION_TYPE":"U","NORAD_CAT_ID":64893,"ELEMENT_SET_NO":999,"REV_AT_EPOCH":6507,"BSTAR":0.00075467807,"MEAN_MOTION_DOT":0.00022932,"MEAN_MOTION_DDOT":0}]
